XRISM                   
1 57800U 23137A   24066.11947352  .00005907  00000+0  45915-3 0  9993
2 57800  31.0037 307.9901 0010246 269.1098  90.8363 14.99826116 27110
